OBJECT_NAME,OBJECT_ID,EPOCH,MEAN_MOTION,ECCENTRICITY,INCLINATION,RA_OF_ASC_NODE,ARG_OF_PERICENTER,MEAN_ANOMALY,EPHEMERIS_TYPE,CLASSIFICATION_TYPE,NORAD_CAT_ID,ELEMENT_SET_NO,REV_AT_EPOCH,BSTAR,MEAN_MOTION_DOT,MEAN_MOTION_DDOT
STARLINK-32760,2025-006Q,2026-06-29T21:51:42.947136,15.27593473,.0001504,42.9995,18.9538,269.0732,90.9947,0,U,62568,999,8202,.69104774E-3,.1881E-3,0
STARLINK-32715,2025-006R,2026-06-29T22:04:40.021824,15.27603297,.00016009,42.9987,19.0345,270.6479,89.4189,0,U,62569,999,8202,.10191641E-2,.27909E-3,0
STARLINK-32764,2025-006S,2026-06-30T12:23:10.860288,15.27591149,.00020082,43.0025,15.7618,249.1017,110.9620,0,U,62570,999,8211,.11105543E-2,.30435E-3,0
STARLINK-32773,2025-006T,2026-06-29T22:52:34.042656,15.27594513,.00015665,43.0025,18.4201,266.7516,93.3157,0,U,62571,999,8203,.8191551E-3,.22358E-3,0
STARLINK-32750,2025-006U,2026-06-30T14:08:13.795584,15.27608915,.00011853,43.0032,14.5864,274.1180,85.9536,0,U,62572,999,8213,.11450151E-2,.31408E-3,0
STARLINK-32771,2025-006V,2026-06-30T14:23:01.683456,15.27601115,.00013407,43.0009,14.6629,233.8959,126.1768,0,U,62573,999,8213,.10124647E-2,.27721E-3,0
STARLINK-32766,2025-006W,2026-06-29T23:07:21.705888,15.27620104,.00008926,43.0005,18.4941,323.1374,36.9417,0,U,62574,999,8203,.98361069E-3,.26937E-3,0
STARLINK-11547 [DTC],2025-008A,2026-06-29T23:43:38.790624,15.70903432,.00013102,42.9993,169.4733,246.6753,113.3976,0,U,62587,999,8377,.14351036E-2,.18843E-2,0
STARLINK-11185 [DTC],2025-008B,2026-06-29T22:57:46.423584,15.70959069,.00018715,42.9998,169.2139,226.4932,133.5781,0,U,62588,999,8377,.20926929E-2,.278662E-2,0
STARLINK-11513 [DTC],2025-008C,2026-06-30T10:09:16.688448,15.70896308,.0001866,43.0013,166.7033,269.0762,90.9892,0,U,62589,999,8384,.13583996E-2,.178059E-2,0
STARLINK-11397 [DTC],2025-008D,2026-06-30T09:15:45.793152,15.70873804,.00013371,43.0008,166.4036,285.0232,75.0488,0,U,62590,999,8495,.11219931E-2,.146286E-2,0
STARLINK-11420 [DTC],2025-008E,2026-06-30T10:16:55.442208,15.70924458,.00014638,43.0006,166.7453,269.4055,90.6645,0,U,62591,999,8502,.17605276E-2,.232713E-2,0
STARLINK-11415 [DTC],2025-008F,2026-06-30T10:39:51.347520,15.70927088,.0002253,42.9991,166.8724,244.0770,115.9865,0,U,62592,999,8495,.10451951E-2,.136391E-2,0
STARLINK-11413 [DTC],2025-008G,2026-06-30T10:32:12.977376,15.70903112,.00012248,43.0011,166.8275,269.0647,91.0080,0,U,62593,999,8491,.14607253E-2,.191879E-2,0
STARLINK-11416 [DTC],2025-008H,2026-06-30T15:08:04.947648,16.01451303,.0011339,42.9832,155.6873,150.3807,209.7716,0,U,62594,999,8498,.82305E-3,.478528E-2,.10831E-3
STARLINK-11535 [DTC],2025-008J,2026-06-29T16:36:16.968384,15.70836780,.00005533,42.9978,170.6614,237.8176,122.2638,0,U,62595,999,8475,.11362376E-2,.147949E-2,0
STARLINK-11521 [DTC],2025-008L,2026-06-30T02:08:32.477856,15.70884718,.00008788,42.9977,168.4872,204.6030,155.4796,0,U,62597,999,8496,.12279475E-2,.160493E-2,0
STARLINK-11258 [DTC],2025-008M,2026-06-30T02:16:11.002656,15.70851602,.00010698,42.9987,168.5283,220.3804,139.6985,0,U,62598,999,8496,.14374672E-2,.188328E-2,0
STARLINK-11529 [DTC],2025-008N,2026-06-30T05:26:57.119136,15.70857881,.00016788,43.0014,167.8050,265.0583,95.0093,0,U,62599,999,8499,.13794747E-2,.180591E-2,0
STARLINK-32747,2025-008P,2026-06-29T21:54:20.234880,15.27570630,.00017513,43.0031,4.4785,252.2078,107.8583,0,U,62600,999,8272,.79475092E-3,.21666E-3,0
STARLINK-32767,2025-008Q,2026-06-30T12:44:06.062208,15.27595270,.00016373,43.0014,0.5085,275.9586,84.1079,0,U,62601,999,8288,.94902783E-3,.25957E-3,0
STARLINK-32769,2025-008R,2026-06-30T12:49:38.813664,15.27596701,.00021092,43.0011,0.5344,280.7467,79.3147,0,U,62602,999,8288,.91465989E-3,.25006E-3,0
STARLINK-32778,2025-008S,2026-06-30T12:18:24.661152,15.27602538,.0001199,43.0006,1.2429,195.9563,164.1251,0,U,62603,999,8281,.10325196E-2,.28279E-3,0
STARLINK-32710,2025-008T,2026-06-30T12:23:44.818944,15.27592955,.00009463,42.9965,0.4003,274.7226,85.3517,0,U,62604,999,8282,.99655481E-3,.27273E-3,0
STARLINK-32742,2025-008U,2026-06-30T12:29:17.816640,15.27560181,.00012824,43.0002,0.4303,263.5135,96.5571,0,U,62605,999,8287,.76284869E-3,.20776E-3,0
STARLINK-32783,2025-008V,2026-06-29T21:13:37.776000,15.27607795,.00014936,43.0029,4.2606,269.9422,90.1259,0,U,62606,999,8272,.10069097E-2,.27573E-3,0
STARLINK-32784,2025-008W,2026-06-30T00:00:02.000160,15.52452613,.00255183,42.9922,349.1902,300.2072,176.4132,0,U,62607,999,587,.30371277E-2,.19757E-2,0
STARLINK-32806,2025-014A,2026-06-30T12:51:37.563552,15.27583037,.00012186,43.0006,237.2809,270.1995,89.8717,0,U,62735,999,8051,.7210082E-3,.19633E-3,0
STARLINK-32329,2025-014B,2026-06-30T13:58:01.509888,15.27582801,.00017138,42.9988,236.7601,273.6316,86.4339,0,U,62736,999,8052,.83394192E-3,.22759E-3,0
STARLINK-32774,2025-014C,2026-06-30T12:06:31.414464,15.27586887,.00015823,42.9997,240.5034,283.4019,76.6657,0,U,62737,999,8047,.54639468E-3,.14807E-3,0
STARLINK-32802,2025-014D,2026-06-30T11:54:15.748704,15.27593897,.00014539,43.0019,236.9695,278.1356,81.9330,0,U,62738,999,8051,.73549908E-3,.20041E-3,0
STARLINK-32796,2025-014E,2026-06-29T15:26:31.886304,15.27588670,.00011845,42.9964,241.7589,273.2995,86.7721,0,U,62739,999,8038,.58635143E-3,.15912E-3,0
STARLINK-32805,2025-014F,2026-06-30T11:39:40.369824,15.27582433,.00024674,43.0016,237.7685,263.1155,96.9416,0,U,62740,999,8050,.50138976E-3,.13562E-3,0
STARLINK-32770,2025-014G,2026-06-29T14:10:53.167296,15.27573198,.00018099,43.0018,242.2257,281.1391,78.9257,0,U,62741,999,8037,.25644923E-3,.68E-4,0
STARLINK-32775,2025-014H,2026-06-30T13:59:53.065248,15.27578295,.00007586,42.9954,236.7706,304.0646,56.0133,0,U,62742,999,8052,.76748769E-3,.20916E-3,0
STARLINK-32800,2025-014J,2026-06-30T13:17:58.834752,15.27559413,.00013889,43.0015,244.3341,268.8682,91.2010,0,U,62743,999,8043,.86955803E-3,.23728E-3,0
STARLINK-32758,2025-014K,2026-06-29T20:43:27.492960,15.27595533,.00010211,42.9979,244.2901,279.7220,80.3516,0,U,62744,999,8037,.50327605E-3,.13619E-3,0
STARLINK-32746,2025-014L,2026-06-30T13:19:09.840864,15.27586298,.00026967,42.9983,236.5580,257.3229,102.7321,0,U,62745,999,8052,.51320468E-3,.1389E-3,0
STARLINK-32780,2025-014M,2026-06-30T11:37:49.022688,15.27588803,.00018237,43.0016,237.7538,271.4762,88.5881,0,U,62746,999,8050,.62256955E-3,.16914E-3,0
STARLINK-32765,2025-014N,2026-06-29T13:08:10.302144,15.27592900,.00019178,43.0057,242.7537,293.9264,66.1387,0,U,62747,999,8036,.48196515E-3,.13029E-3,0
STARLINK-32762,2025-014P,2026-06-30T13:44:22.430112,15.27589267,.00018253,42.9981,240.1494,269.2432,90.8211,0,U,62748,999,8048,.46188092E-3,.12473E-3,0
STARLINK-32761,2025-014Q,2026-06-30T13:48:03.958848,15.27590660,.00034476,42.9986,240.1672,243.8760,116.1737,0,U,62749,999,8048,.68838522E-3,.18737E-3,0
STARLINK-32763,2025-014R,2026-06-30T13:39:31.168800,15.27556436,.00025877,42.9984,236.6633,265.6639,94.3917,0,U,62750,999,8052,.18574431E-3,.4849E-4,0
STARLINK-32759,2025-014S,2026-06-30T13:00:10.707840,15.27587312,.00013078,43.0001,240.7839,269.6370,90.4331,0,U,62751,999,8047,.94282863E-3,.25779E-3,0
STARLINK-32756,2025-014T,2026-06-30T13:15:39.931200,15.27570054,.00016027,43.0005,237.4034,275.7853,84.2816,0,U,62752,999,8051,.1805206E-3,.4707E-4,0
STARLINK-32751,2025-014U,2026-06-30T13:06:25.343424,15.27577910,.0002499,43.0041,237.3507,258.3527,101.7045,0,U,62753,999,8051,.39189177E-3,.10537E-3,0
STARLINK-32740,2025-014V,2026-06-30T11:48:42.933312,15.27590052,.00013583,42.9950,236.9569,293.3329,66.7380,0,U,62754,999,8051,.76023756E-3,.20723E-3,0
STARLINK-32745,2025-014W,2026-06-30T12:49:46.437600,15.27588376,.00005413,42.9996,237.2602,275.0481,85.0309,0,U,62755,999,8051,.34042516E-3,.912E-4,0
STARLINK-33596,2025-015A,2026-06-30T04:54:13.720608,15.31696042,.00012895,53.1591,159.4166,130.9069,229.2045,0,U,62758,999,8164,.81612584E-3,.25042E-3,0
STARLINK-33589,2025-015B,2026-06-30T05:00:57.783168,15.31704144,.00012293,53.1586,159.4486,55.1434,304.9683,0,U,62759,999,8095,.34787393E-3,.10446E-3,0
STARLINK-33575,2025-015C,2026-06-30T05:32:26.474208,15.34400623,.00012758,53.1569,158.1321,100.1540,259.9606,0,U,62760,999,8097,.49877181E-3,.16513E-3,0
STARLINK-33584,2025-015D,2026-06-30T05:41:32.167968,15.34399607,.00013072,53.1570,158.2014,90.1755,269.9398,0,U,62761,999,8173,.59867778E-3,.19905E-3,0
STARLINK-33577,2025-015E,2026-06-30T05:13:17.672160,15.31696529,.00012275,53.1571,158.7871,81.5891,278.5250,0,U,62762,999,8172,.10523693E-2,.3243E-3,0
STARLINK-33597,2025-015F,2026-06-30T05:07:40.546272,15.31718694,.00012566,53.1565,159.4671,76.1645,283.9496,0,U,62763,999,8171,.60790779E-3,.18557E-3,0
STARLINK-33579,2025-015G,2026-06-30T05:20:58.971264,15.31707686,.00010945,53.1568,158.8197,100.7720,259.3405,0,U,62764,999,8172,.36299234E-3,.10918E-3,0
STARLINK-33592,2025-015H,2026-06-30T03:31:22.685376,15.34391455,.00012244,53.1574,158.3446,65.0437,295.0693,0,U,62765,999,8159,.63322016E-3,.21072E-3,0
STARLINK-33595,2025-015J,2026-06-30T06:42:00.042624,15.34361360,.0001259,53.1571,157.7528,70.1639,289.9500,0,U,62766,999,8174,.59755694E-3,.19842E-3,0
STARLINK-33572,2025-015K,2026-06-30T04:47:06.025056,15.34400309,.00014063,53.1578,158.6730,93.8916,266.2247,0,U,62767,999,8166,-.60068838E-3,-.20617E-3,0
STARLINK-33601,2025-015L,2026-06-30T05:29:23.642304,15.34366395,.0001073,53.1572,158.1512,81.5566,278.5558,0,U,62768,999,8173,.82668361E-3,.27628E-3,0
STARLINK-33569,2025-015M,2026-06-30T04:50:09.475584,15.34409047,.00012222,53.1587,158.6875,85.7220,274.3922,0,U,62769,999,8172,.75563493E-3,.25247E-3,0
STARLINK-33594,2025-015N,2026-06-30T05:27:42.115392,15.31708348,.00011986,53.1566,158.8488,91.5354,268.5785,0,U,62770,999,8172,.48397664E-3,.14687E-3,0
STARLINK-33598,2025-015P,2026-06-30T06:05:46.548672,15.34395258,.0001306,53.1586,158.2993,87.8752,272.2400,0,U,62771,999,8173,.56849577E-3,.18877E-3,0
STARLINK-33600,2025-015Q,2026-06-30T05:14:23.925408,15.31706724,.00011884,53.1579,159.4998,82.9426,277.1710,0,U,62772,999,8171,.84858243E-3,.26065E-3,0
